{
  "norad_id": 54052,
  "name": "STARLINK-5189",
  "history": [
    {
      "epoch": "2026-04-14T19:54:51.612192Z",
      "apogee_km": 540.532904977169,
      "perigee_km": 538.9597783052805,
      "latitude_deg": -2.3251660527232992e-05,
      "longitude_deg": -0.022733243798921936,
      "height_km": 540.5024079696633,
      "semi_major_axis_km": 6917.883341641224,
      "eccentricity": 0.0001137,
      "inclination_deg": 53.2156,
      "raan_deg": 141.6929,
      "arg_perigee_deg": 79.7633,
      "mean_anomaly_deg": 280.3487,
      "mean_motion_rev_day": 15.08839034
    },
    {
      "epoch": "2026-04-15T19:45:38.622816Z",
      "apogee_km": 540.5462757781124,
      "perigee_km": 538.9413274321405,
      "latitude_deg": -1.9947965413076424e-05,
      "longitude_deg": -3.1583429956291234,
      "height_km": 540.4773845172498,
      "semi_major_axis_km": 6917.880801605126,
      "eccentricity": 0.000116,
      "inclination_deg": 53.2156,
      "raan_deg": 137.2325,
      "arg_perigee_deg": 78.3355,
      "mean_anomaly_deg": 281.7767,
      "mean_motion_rev_day": 15.08839865
    },
    {
      "epoch": "2026-04-16T13:14:53.017728Z",
      "apogee_km": 540.5547364916947,
      "perigee_km": 538.9235013028592,
      "latitude_deg": 4.879167224844591e-06,
      "longitude_deg": 90.5424188598142,
      "height_km": 540.4577417869766,
      "semi_major_axis_km": 6917.876118897277,
      "eccentricity": 0.0001179,
      "inclination_deg": 53.2155,
      "raan_deg": 133.9614,
      "arg_perigee_deg": 77.454,
      "mean_anomaly_deg": 282.6584,
      "mean_motion_rev_day": 15.08841397
    },
    {
      "epoch": "2026-04-17T22:37:59.234880Z",
      "apogee_km": 540.5764652722182,
      "perigee_km": 538.9287623240034,
      "latitude_deg": -7.735297561688435e-07,
      "longitude_deg": -57.84926391320491,
      "height_km": 540.4383585766566,
      "semi_major_axis_km": 6917.88961379811,
      "eccentricity": 0.00011909,
      "inclination_deg": 53.2156,
      "raan_deg": 127.7167,
      "arg_perigee_deg": 75.2281,
      "mean_anomaly_deg": 284.8843,
      "mean_motion_rev_day": 15.08836982
    },
    {
      "epoch": "2026-04-18T20:53:23.138016Z",
      "apogee_km": 540.5867660529275,
      "perigee_km": 538.9112540612905,
      "latitude_deg": -7.516680036079038e-05,
      "longitude_deg": -36.77616328676926,
      "height_km": 540.4244012002241,
      "semi_major_axis_km": 6917.886010057108,
      "eccentricity": 0.0001211,
      "inclination_deg": 53.2156,
      "raan_deg": 123.5535,
      "arg_perigee_deg": 74.7468,
      "mean_anomaly_deg": 285.3657,
      "mean_motion_rev_day": 15.08838161
    },
    {
      "epoch": "2026-04-19T19:08:47.238144Z",
      "apogee_km": 540.6048012120536,
      "perigee_km": 538.9030000504981,
      "latitude_deg": 5.775081602192379e-06,
      "longitude_deg": -15.70377126813846,
      "height_km": 540.4235057195136,
      "semi_major_axis_km": 6917.890900631275,
      "eccentricity": 0.000123,
      "inclination_deg": 53.2158,
      "raan_deg": 119.3903,
      "arg_perigee_deg": 74.5853,
      "mean_anomaly_deg": 285.5275,
      "mean_motion_rev_day": 15.08836561
    },
    {
      "epoch": "2026-04-20T12:38:01.840416Z",
      "apogee_km": 540.613089321283,
      "perigee_km": 538.8945468842494,
      "latitude_deg": 5.2569144415334086e-05,
      "longitude_deg": 77.99623773945041,
      "height_km": 540.4229557980549,
      "semi_major_axis_km": 6917.8908181027655,
      "eccentricity": 0.00012421,
      "inclination_deg": 53.216,
      "raan_deg": 116.1193,
      "arg_perigee_deg": 74.707,
      "mean_anomaly_deg": 285.406,
      "mean_motion_rev_day": 15.08836588
    }
  ]
}